NORAD_CAT_ID,OBJECT_NAME,OBJECT_TYPE,EPOCH,MEAN_MOTION,ECCENTRICITY,INCLINATION,RA_OF_ASC_NODE,ARG_OF_PERICENTER,MEAN_ANOMALY,BSTAR,MEAN_MOTION_DOT,MEAN_MOTION_DDOT,TLE_LINE0,TLE_LINE1,TLE_LINE2,SEMIMAJOR_AXIS,PERIOD,APOGEE,PERIGEE,DECAYED
55919.0,STARLINK-5871,PAYLOAD,2023-09-25 19:38:13,14.98338726,0.0003132,70.0017,43.2969,273.0092,87.0709,9.6887e-05,1.063e-05,0.0,0 STARLINK-5871,1 55919U 23037F   23268.81821536  .00001063  00000-0  96887-4 0  9991,2 55919  70.0017  43.2969 0003132 273.0092  87.0709 14.98338726 29633,6950.166,96.106,574.208,569.854,0.0
55919.0,STARLINK-5871,PAYLOAD,2023-09-26 10:03:27,14.98307707,0.0002702,70.0039,41.7828,240.2045,119.8846,0.00025973,3.006e-05,0.0,0 STARLINK-5871,1 55919U 23037F   23269.41906752  .00003006  00000-0  25973-3 0  9998,2 55919  70.0039  41.7828 0002702 240.2045 119.8846 14.98307707 29721,6950.262,96.108,574.005,570.249,0.0
55919.0,STARLINK-5871,PAYLOAD,2023-09-26 14:51:51,14.98321525,0.0003154,70.0017,41.2774,266.317,93.7628,-7.0772e-05,-9.37e-06,0.0,0 STARLINK-5871,1 55919U 23037F   23269.61935183 -.00000937  00000-0 -70772-4 0  9990,2 55919  70.0017  41.2774 0003154 266.3170  93.7628 14.98321525 29410,6950.219,96.108,574.276,569.892,0.0
55919.0,STARLINK-5871,PAYLOAD,2023-09-26 18:04:08,14.98323252,0.0003015,70.0019,40.9405,261.0756,99.0062,-6.436e-05,-8.61e-06,0.0,0 STARLINK-5871,1 55919U 23037F   23269.75287062 -.00000861  00000-0 -64360-4 0  9993,2 55919  70.0019  40.9405 0003015 261.0756  99.0062 14.98323252 29439,6950.214,96.107,574.174,569.983,0.0
55919.0,STARLINK-5871,PAYLOAD,2023-09-27 02:04:47,14.9833177,0.0003379,70.0011,40.0986,274.7531,85.3242,-5.3499e-05,-7.31e-06,0.0,0 STARLINK-5871,1 55919U 23037F   23270.08666558 -.00000731  00000-0 -53499-4 0  9999,2 55919  70.0011  40.0986 0003379 274.7531  85.3242 14.98331770 29826,6950.187,96.107,574.401,569.704,0.0
55919.0,STARLINK-5871,PAYLOAD,2023-09-27 13:17:44,14.98329442,0.0003011,70.0019,38.9217,266.3671,93.7143,-1.774e-05,-3.05e-06,0.0,0 STARLINK-5871,1 55919U 23037F   23270.55398728 -.00000305  00000-0 -17740-4 0  9998,2 55919  70.0019  38.9217 0003011 266.3671  93.7143 14.98329442 29558,6950.195,96.107,574.152,569.967,0.0
55919.0,STARLINK-5871,PAYLOAD,2023-09-28 11:43:37,14.98327046,0.0003073,70.0018,36.5652,267.4612,92.6195,8.1245e-05,8.76e-06,0.0,0 STARLINK-5871,1 55919U 23037F   23271.48862560  .00000876  00000-0  81245-4 0  9993,2 55919  70.0018  36.5652 0003073 267.4612  92.6195 14.98327046 30037,6950.202,96.107,574.203,569.931,0.0
55919.0,STARLINK-5871,PAYLOAD,2023-09-28 14:55:53,14.98327486,0.0003069,70.0019,36.2286,267.4586,92.6222,8.2972e-05,8.97e-06,0.0,0 STARLINK-5871,1 55919U 23037F   23271.62214548  .00000897  00000-0  82972-4 0  9997,2 55919  70.0019  36.2286 0003069 267.4586  92.6222 14.98327486 29715,6950.201,96.107,574.199,569.933,0.0
55919.0,STARLINK-5871,PAYLOAD,2023-09-28 18:08:09,14.98329751,0.0003055,70.0019,35.8921,267.4606,92.6203,0.00010419,1.15e-05,0.0,0 STARLINK-5871,1 55919U 23037F   23271.75566347  .00001150  00000-0  10419-3 0  9997,2 55919  70.0019  35.8921 0003055 267.4606  92.6203 14.98329751 29732,6950.194,96.107,574.182,569.935,0.0
55919.0,STARLINK-5871,PAYLOAD,2023-09-29 11:45:38,14.98327249,0.0003,70.0021,34.0406,267.0074,93.0742,-1.2178e-05,-2.38e-06,0.0,0 STARLINK-5871,1 55919U 23037F   23272.49002842 -.00000238  00000-0 -12178-4 0  9997,2 55919  70.0021  34.0406 0003000 267.0074  93.0742 14.98327249 30183,6950.201,96.107,574.151,569.981,0.0
55919.0,STARLINK-5871,PAYLOAD,2023-09-29 13:21:46,14.98326719,0.0003004,70.0021,33.8722,266.9949,93.0867,-1.7387e-05,-3e-06,0.0,0 STARLINK-5871,1 55919U 23037F   23272.55678898 -.00000300  00000-0 -17387-4 0  9991,2 55919  70.0021  33.8722 0003004 266.9949  93.0867 14.98326719 29855,6950.203,96.107,574.156,569.98,0.0
55919.0,STARLINK-5871,PAYLOAD,2023-09-29 18:10:10,14.98334957,0.0002976,70.0019,33.3667,260.211,99.8713,1.9075e-05,1.35e-06,0.0,0 STARLINK-5871,1 55919U 23037F   23272.75706181  .00000135  00000-0  19075-4 0  9990,2 55919  70.0019  33.3667 0002976 260.2110  99.8713 14.98334957 30229,6950.178,96.107,574.111,569.974,0.0
55919.0,STARLINK-5871,PAYLOAD,2023-09-30 18:12:10,14.98338565,0.0003011,70.0016,30.8419,268.3171,91.7643,7.1067e-05,7.55e-06,0.0,0 STARLINK-5871,1 55919U 23037F   23273.75845544  .00000755  00000-0  71067-4 0  9995,2 55919  70.0016  30.8419 0003011 268.3171  91.7643 14.98338565 30378,6950.166,96.106,574.124,569.939,0.0
55919.0,STARLINK-5871,PAYLOAD,2023-10-01 11:49:39,14.98331362,0.0002888,70.0019,28.9908,260.71,99.3732,2.8178e-05,2.43e-06,0.0,0 STARLINK-5871,1 55919U 23037F   23274.49281879  .00000243  00000-0  28178-4 0  9999,2 55919  70.0019  28.9908 0002888 260.7100  99.3732 14.98331362 30484,6950.189,96.107,574.061,570.046,0.0
55919.0,STARLINK-5871,PAYLOAD,2023-10-01 18:14:11,14.98336103,0.000289,70.0011,28.3163,263.1603,96.9227,5.8607e-05,6.06e-06,0.0,0 STARLINK-5871,1 55919U 23037F   23274.75985413  .00000606  00000-0  58607-4 0  9996,2 55919  70.0011  28.3163 0002890 263.1603  96.9227 14.98336103 30188,6950.174,96.107,574.048,570.03,0.0
55919.0,STARLINK-5871,PAYLOAD,2023-10-02 10:15:33,14.98319733,0.0003163,70.0007,26.6337,270.956,89.1237,-0.0001045,-1.339e-05,0.0,0 STARLINK-5871,1 55919U 23037F   23275.42746863 -.00001339  00000-0 -10450-3 0  9994,2 55919  70.0007  26.6337 0003163 270.9560  89.1237 14.98319733 30623,6950.225,96.108,574.288,569.891,0.0
55919.0,STARLINK-5871,PAYLOAD,2023-10-02 16:40:05,14.98326161,0.0003001,70.001,25.9607,269.6264,90.4551,-9.4684e-05,-1.222e-05,0.0,0 STARLINK-5871,1 55919U 23037F   23275.69450515 -.00001222  00000-0 -94684-4 0  9992,2 55919  70.0010  25.9607 0003001 269.6264  90.4551 14.98326161 30667,6950.205,96.107,574.156,569.984,0.0
55919.0,STARLINK-5871,PAYLOAD,2023-10-03 13:29:49,14.98333452,0.0002954,70.0004,23.7725,264.1047,95.9776,-8.2934e-06,-1.92e-06,0.0,0 STARLINK-5871,1 55919U 23037F   23276.56237865 -.00000192  00000-0 -82934-5 0  9991,2 55919  70.0004  23.7725 0002954 264.1047  95.9776 14.98333452 30796,6950.182,96.107,574.1,569.994,0.0
55919.0,STARLINK-5871,PAYLOAD,2023-10-03 16:42:05,14.98334044,0.0002897,70.0006,23.4362,263.6356,96.4473,5.6771e-06,-2.5e-07,0.0,0 STARLINK-5871,1 55919U 23037F   23276.69589785 -.00000025  00000-0  56771-5 0  9990,2 55919  70.0006  23.4362 0002897 263.6356  96.4473 14.98334044 30478,6950.18,96.107,574.059,570.032,0.0
55919.0,STARLINK-5871,PAYLOAD,2023-10-04 13:31:49,14.98333711,0.0002825,70.0006,21.2459,265.1367,94.947,0.00017913,2.045e-05,0.0,0 STARLINK-5871,1 55919U 23037F   23277.56377312  .00002045  00000-0  17913-3 0  9994,2 55919  70.0006  21.2459 0002825 265.1367  94.9470 14.98333711 30606,6950.181,96.107,574.01,570.083,0.0
55919.0,STARLINK-5871,PAYLOAD,2023-10-04 16:44:05,14.98336899,0.0002942,70.0007,20.91,269.3348,90.7474,0.00018364,2.099e-05,0.0,0 STARLINK-5871,1 55919U 23037F   23277.69729070  .00002099  00000-0  18364-3 0  9990,2 55919  70.0007  20.9100 0002942 269.3348  90.7474 14.98336899 30968,6950.172,96.107,574.081,569.992,0.0
55919.0,STARLINK-5871,PAYLOAD,2023-10-05 10:21:35,14.98328578,0.0002848,70.0011,19.0596,266.6684,93.4149,2.2188e-05,1.72e-06,0.0,0 STARLINK-5871,1 55919U 23037F   23278.43165890  .00000172  00000-0  22188-4 0  9997,2 55919  70.0011  19.0596 0002848 266.6684  93.4149 14.98328578 31076,6950.197,96.107,574.042,570.083,0.0
55919.0,STARLINK-5871,PAYLOAD,2023-10-05 13:33:51,14.98333152,0.0003273,69.9999,18.7229,275.7865,84.292,-2.8875e-05,-4.38e-06,0.0,0 STARLINK-5871,1 55919U 23037F   23278.56517777 -.00000438  00000-0 -28875-4 0  9992,2 55919  69.9999  18.7229 0003273 275.7865  84.2920 14.98333152 30755,6950.183,96.107,574.323,569.773,0.0
55919.0,STARLINK-5871,PAYLOAD,2023-10-05 16:46:07,14.98335322,0.0003171,70.0001,18.386,275.332,84.7477,9.3892e-06,1.9e-07,0.0,0 STARLINK-5871,1 55919U 23037F   23278.69869515  .00000019  00000-0  93892-5 0  9991,2 55919  70.0001  18.3860 0003171 275.3320  84.7477 14.98335322 30773,6950.176,96.107,574.245,569.838,0.0
55919.0,STARLINK-5871,PAYLOAD,2023-10-06 10:23:36,14.98326623,0.0002984,70.0018,16.536,273.0971,86.9847,-0.00010422,-1.336e-05,0.0,0 STARLINK-5871,1 55919U 23037F   23279.43306477 -.00001336  00000-0 -10422-3 0  9998,2 55919  70.0018  16.5360 0002984 273.0971  86.9847 14.98326623 31224,6950.203,96.107,574.142,569.994,0.0
55919.0,STARLINK-5871,PAYLOAD,2023-10-06 13:35:52,14.98329309,0.0003008,70.0009,16.1986,269.3792,90.7023,-5.4483e-05,-7.43e-06,0.0,0 STARLINK-5871,1 55919U 23037F   23279.56658135 -.00000743  00000-0 -54483-4 0  9990,2 55919  70.0009  16.1986 0003008 269.3792  90.7023 14.98329309 30908,6950.195,96.107,574.151,569.969,0.0
55919.0,STARLINK-5871,PAYLOAD,2023-10-06 16:48:08,14.98331114,0.000305,70.001,15.8617,271.0697,89.0113,-2.9682e-05,-4.47e-06,0.0,0 STARLINK-5871,1 55919U 23037F   23279.70009954 -.00000447  00000-0 -29682-4 0  9999,2 55919  70.0010  15.8617 0003050 271.0697  89.0113 14.98331114 30928,6950.189,96.107,574.174,569.935,0.0
55919.0,STARLINK-5871,PAYLOAD,2023-10-07 10:25:38,14.98317787,0.0002716,70.0017,14.011,268.9892,91.0956,-1.7034e-05,-2.96e-06,0.0,0 STARLINK-5871,1 55919U 23037F   23280.43446951 -.00000296  00000-0 -17034-4 0  9993,2 55919  70.0017  14.0110 0002716 268.9892  91.0956 14.98317787 31372,6950.231,96.108,573.983,570.208,0.0
55919.0,STARLINK-5871,PAYLOAD,2023-10-07 13:37:54,14.98318219,0.0002741,70.0017,13.6745,271.2941,88.7904,-9.5763e-06,-2.07e-06,0.0,0 STARLINK-5871,1 55919U 23037F   23280.56799014 -.00000207  00000-0 -95763-5 0  9996,2 55919  70.0017  13.6745 0002741 271.2941  88.7904 14.98318219 31053,6950.229,96.108,573.999,570.189,0.0
55919.0,STARLINK-5871,PAYLOAD,2023-10-07 16:50:10,14.98321726,0.0002684,70.0018,13.3379,269.5946,90.4906,2.2596e-05,1.77e-06,0.0,0 STARLINK-5871,1 55919U 23037F   23280.70150772  .00000177  00000-0  22596-4 0  9991,2 55919  70.0018  13.3379 0002684 269.5946  90.4906 14.98321726 31076,6950.218,96.108,573.949,570.218,0.0
